[{"OBJECT_NAME":"STARLINK-5525","OBJECT_ID":"2023-094A","EPOCH":"2026-03-09T22:00:01.999584","MEAN_MOTION":15.1907156,"ECCENTRICITY":0.00012507,"INCLINATION":43.0019,"RA_OF_ASC_NODE":28.7896,"ARG_OF_PERICENTER":233.0657,"MEAN_ANOMALY":277.2723,"EPHEMERIS_TYPE":0,"CLASSIFICATION_TYPE":"U","NORAD_CAT_ID":57218,"ELEMENT_SET_NO":999,"REV_AT_EPOCH":567,"BSTAR":0.056169201,"MEAN_MOTION_DOT":0.01299999,"MEAN_MOTION_DDOT":0},{"OBJECT_NAME":"TRANSPORTER-15 OBJECT R","OBJECT_ID":"2025-276R","EPOCH":"2026-03-09T16:52:42.731904","MEAN_MOTION":15.20705036,"ECCENTRICITY":0.00051791,"INCLINATION":97.4189,"RA_OF_ASC_NODE":143.9638,"ARG_OF_PERICENTER":19.2989,"MEAN_ANOMALY":340.8441,"EPHEMERIS_TYPE":0,"CLASSIFICATION_TYPE":"U","NORAD_CAT_ID":66681,"ELEMENT_SET_NO":999,"REV_AT_EPOCH":1532,"BSTAR":0.00086230498,"MEAN_MOTION_DOT":0.00018928,"MEAN_MOTION_DDOT":0}]
